{"type": "FeatureCollection", "features": [ {"type": "Feature", "properties": {"norad_id": 66571, "name": "STARLINK-35836", "group": "last-30-days", "lat": 33.11986355109143, "lon": 146.8176060700873, "alt_km": 409.28501620301995, "timestamp": "2025-12-15T22:44:27.659962+00:00", "meta": {"OBJECT_NAME": "STARLINK-35836", "OBJECT_ID": "2025-268Q", "EPOCH": "2025-12-15T08:35:58.357248", "MEAN_MOTION": 15.50629225, "ECCENTRICITY": 3.589e-05, "INCLINATION": 42.9949, "RA_OF_ASC_NODE": 105.8207, "ARG_OF_PERICENTER": 355.699, "MEAN_ANOMALY": 4.3866, "EPHEMERIS_TYPE": 0, "CLASSIFICATION_TYPE": "U", "NORAD_CAT_ID": 66571, "ELEMENT_SET_NO": 999, "REV_AT_EPOCH": 503, "BSTAR": 0.00090980586, "MEAN_MOTION_DOT": 0.00053493, "MEAN_MOTION_DDOT": 0}, "tle": {"line1": "1 66571U 25268Q   25349.35831432  .00053493  00000+0  90981-3 0  9993", "line2": "2 66571  42.9949 105.8207 0000358 355.6990   4.3866 15.50629225  5032"}}, "geometry": {"type": "Point", "coordinates": [146.8176060700873, 33.11986355109143]}}, {"type": "Feature", "properties": {"norad_id": 66572, "name": "STARLINK-35870", "group": "last-30-days", "lat": 34.033820049160276, "lon": 148.82645767674146, "alt_km": 409.3058221062265, "timestamp": "2025-12-15T22:44:27.659972+00:00", "meta": {"OBJECT_NAME": "STARLINK-35870", "OBJECT_ID": "2025-268R", "EPOCH": "2025-12-15T08:35:28.701312", "MEAN_MOTION": 15.50627319, "ECCENTRICITY": 1.163e-05, "INCLINATION": 42.996, "RA_OF_ASC_NODE": 105.819, "ARG_OF_PERICENTER": 312.0939, "MEAN_ANOMALY": 47.9911, "EPHEMERIS_TYPE": 0, "CLASSIFICATION_TYPE": "U", "NORAD_CAT_ID": 66572, "ELEMENT_SET_NO": 999, "REV_AT_EPOCH": 503, "BSTAR": 0.00085192961, "MEAN_MOTION_DOT": 0.00050043, "MEAN_MOTION_DDOT": 0}, "tle": {"line1": "1 66572U 25268R   25349.35797108  .00050043  00000+0  85193-3 0  9992", "line2": "2 66572  42.9960 105.8190 0000116 312.0939  47.9911 15.50627319  5035"}}, "geometry": {"type": "Point", "coordinates": [148.82645767674146, 34.033820049160276]}}, {"type": "Feature", "properties": {"norad_id": 66573, "name": "STARLINK-35650", "group": "last-30-days", "lat": 34.985270685131084, "lon": 151.03816901646007, "alt_km": 410.1920308239205, "timestamp": "2025-12-15T22:44:27.659982+00:00", "meta": {"OBJECT_NAME": "STARLINK-35650", "OBJECT_ID": "2025-268S", "EPOCH": "2025-12-15T00:51:11.503584", "MEAN_MOTION": 15.50614747, "ECCENTRICITY": 0.00023876, "INCLINATION": 42.9993, "RA_OF_ASC_NODE": 107.6954, "ARG_OF_PERICENTER": 275.2947, "MEAN_ANOMALY": 84.7641, "EPHEMERIS_TYPE": 0, "CLASSIFICATION_TYPE": "U", "NORAD_CAT_ID": 66573, "ELEMENT_SET_NO": 999, "REV_AT_EPOCH": 498, "BSTAR": 0.0010086711, "MEAN_MOTION_DOT": 0.00059361, "MEAN_MOTION_DDOT": 0}, "tle": {"line1": "1 66573U 25268S   25349.03554981  .00059361  00000+0  10087-2 0  9999", "line2": "2 66573  42.9993 107.6954 0002387 275.2947  84.7641 15.50614747  4984"}}, "geometry": {"type": "Point", "coordinates": [151.03816901646007, 34.985270685131084]}}, {"type": "Feature", "properties": {"norad_id": 66574, "name": "STARLINK-35812", "group": "last-30-days", "lat": 36.33655358903025, "lon": 154.4739101536607, "alt_km": 408.3975389212346, "timestamp": "2025-12-15T22:44:27.660008+00:00", "meta": {"OBJECT_NAME": "STARLINK-35812", "OBJECT_ID": "2025-268T", "EPOCH": "2025-12-14T01:39:20.923488", "MEAN_MOTION": 15.50571155, "ECCENTRICITY": 0.00014446, "INCLINATION": 42.9999, "RA_OF_ASC_NODE": 113.3431, "ARG_OF_PERICENTER": 286.1846, "MEAN_ANOMALY": 73.8855, "EPHEMERIS_TYPE": 0, "CLASSIFICATION_TYPE": "U", "NORAD_CAT_ID": 66574, "ELEMENT_SET_NO": 999, "REV_AT_EPOCH": 483, "BSTAR": 0.002097662, "MEAN_MOTION_DOT": 0.00124662, "MEAN_MOTION_DDOT": 0}, "tle": {"line1": "1 66574U 25268T   25348.06899217  .00124662  00000+0  20977-2 0  9992", "line2": "2 66574  42.9999 113.3431 0001444 286.1846  73.8855 15.50571155  4832"}}, "geometry": {"type": "Point", "coordinates": [154.4739101536607, 36.33655358903025]}}, {"type": "Feature", "properties": {"norad_id": 66575, "name": "STARLINK-35810", "group": "last-30-days", "lat": 36.57632412645109, "lon": 155.13031064745743, "alt_km": 409.71418134140913, "timestamp": "2025-12-15T22:44:27.660021+00:00", "meta": {"OBJECT_NAME": "STARLINK-35810", "OBJECT_ID": "2025-268U", "EPOCH": "2025-12-15T08:33:59.691168", "MEAN_MOTION": 15.50607873, "ECCENTRICITY": 0.00015183, "INCLINATION": 42.9995, "RA_OF_ASC_NODE": 105.8072, "ARG_OF_PERICENTER": 269.3187, "MEAN_ANOMALY": 90.7499, "EPHEMERIS_TYPE": 0, "CLASSIFICATION_TYPE": "U", "NORAD_CAT_ID": 66575, "ELEMENT_SET_NO": 999, "REV_AT_EPOCH": 503, "BSTAR": 0.0013276682, "MEAN_MOTION_DOT": 0.00078411, "MEAN_MOTION_DDOT": 0}, "tle": {"line1": "1 66575U 25268U   25349.35694087  .00078411  00000+0  13277-2 0  9999", "line2": "2 66575  42.9995 105.8072 0001518 269.3187  90.7499 15.50607873  5031"}}, "geometry": {"type": "Point", "coordinates": [155.13031064745743, 36.57632412645109]}}, {"type": "Feature", "properties": {"norad_id": 66576, "name": "STARLINK-35814", "group": "last-30-days", "lat": 37.325939672491415, "lon": 157.26010114283943, "alt_km": 409.6315274158287, "timestamp": "2025-12-15T22:44:27.660032+00:00", "meta": {"OBJECT_NAME": "STARLINK-35814", "OBJECT_ID": "2025-268V", "EPOCH": "2025-12-15T08:33:29.791584", "MEAN_MOTION": 15.50573878, "ECCENTRICITY": 0.00016376, "INCLINATION": 42.9998, "RA_OF_ASC_NODE": 105.8043, "ARG_OF_PERICENTER": 283.1679, "MEAN_ANOMALY": 76.8998, "EPHEMERIS_TYPE": 0, "CLASSIFICATION_TYPE": "U", "NORAD_CAT_ID": 66576, "ELEMENT_SET_NO": 999, "REV_AT_EPOCH": 503, "BSTAR": 0.001279951, "MEAN_MOTION_DOT": 0.00075461, "MEAN_MOTION_DDOT": 0}, "tle": {"line1": "1 66576U 25268V   25349.35659481  .00075461  00000+0  12800-2 0  9992", "line2": "2 66576  42.9998 105.8043 0001637 283.1679  76.8998 15.50573878  5031"}}, "geometry": {"type": "Point", "coordinates": [157.26010114283943, 37.325939672491415]}}, {"type": "Feature", "properties": {"norad_id": 66577, "name": "STARLINK-35815", "group": "last-30-days", "lat": 38.065238523787606, "lon": 159.5306160858558, "alt_km": 409.0965730406242, "timestamp": "2025-12-15T22:44:27.660063+00:00", "meta": {"OBJECT_NAME": "STARLINK-35815", "OBJECT_ID": "2025-268W", "EPOCH": "2025-12-15T08:33:00.482976", "MEAN_MOTION": 15.50604868, "ECCENTRICITY": 0.00012497, "INCLINATION": 42.9976, "RA_OF_ASC_NODE": 105.8011, "ARG_OF_PERICENTER": 302.8545, "MEAN_ANOMALY": 57.2194, "EPHEMERIS_TYPE": 0, "CLASSIFICATION_TYPE": "U", "NORAD_CAT_ID": 66577, "ELEMENT_SET_NO": 999, "REV_AT_EPOCH": 503, "BSTAR": 0.00095342008, "MEAN_MOTION_DOT": 0.00056044, "MEAN_MOTION_DDOT": 0}, "tle": {"line1": "1 66577U 25268W   25349.35625559  .00056044  00000+0  95342-3 0  9991", "line2": "2 66577  42.9976 105.8011 0001249 302.8545  57.2194 15.50604868  5038"}}, "geometry": {"type": "Point", "coordinates": [159.5306160858558, 38.065238523787606]}}, {"type": "Feature", "properties": {"norad_id": 66578, "name": "STARLINK-35743", "group": "last-30-days", "lat": 38.70260351712494, "lon": 161.6412262850884, "alt_km": 409.3168875131487, "timestamp": "2025-12-15T22:44:27.660076+00:00", "meta": {"OBJECT_NAME": "STARLINK-35743", "OBJECT_ID": "2025-268X", "EPOCH": "2025-12-15T08:32:31.505280", "MEAN_MOTION": 15.50562758, "ECCENTRICITY": 9.771e-05, "INCLINATION": 42.9981, "RA_OF_ASC_NODE": 105.7995, "ARG_OF_PERICENTER": 270.2559, "MEAN_ANOMALY": 89.8189, "EPHEMERIS_TYPE": 0, "CLASSIFICATION_TYPE": "U", "NORAD_CAT_ID": 66578, "ELEMENT_SET_NO": 999, "REV_AT_EPOCH": 503, "BSTAR": 0.00088692092, "MEAN_MOTION_DOT": 0.00052005, "MEAN_MOTION_DDOT": 0}, "tle": {"line1": "1 66578U 25268X   25349.35592020  .00052005  00000+0  88692-3 0  9991", "line2": "2 66578  42.9981 105.7995 0000977 270.2559  89.8189 15.50562758  5031"}}, "geometry": {"type": "Point", "coordinates": [161.6412262850884, 38.70260351712494]}}, {"type": "Feature", "properties": {"norad_id": 66579, "name": "STARLINK-35868", "group": "last-30-days", "lat": 39.3993316998456, "lon": 164.16871445521875, "alt_km": 408.7471835170927, "timestamp": "2025-12-15T22:44:27.660087+00:00", "meta": {"OBJECT_NAME": "STARLINK-35868", "OBJECT_ID": "2025-268Y", "EPOCH": "2025-12-15T08:32:01.184064", "MEAN_MOTION": 15.50616977, "ECCENTRICITY": 0.00010211, "INCLINATION": 42.9953, "RA_OF_ASC_NODE": 105.7958, "ARG_OF_PERICENTER": 311.2592, "MEAN_ANOMALY": 48.818, "EPHEMERIS_TYPE": 0, "CLASSIFICATION_TYPE": "U", "NORAD_CAT_ID": 66579, "ELEMENT_SET_NO": 999, "REV_AT_EPOCH": 503, "BSTAR": 0.00086971084, "MEAN_MOTION_DOT": 0.00051083, "MEAN_MOTION_DDOT": 0}, "tle": {"line1": "1 66579U 25268Y   25349.35556926  .00051083  00000+0  86971-3 0  9990", "line2": "2 66579  42.9953 105.7958 0001021 311.2592  48.8180 15.50616977  5033"}}, "geometry": {"type": "Point", "coordinates": [164.16871445521875, 39.3993316998456]}}, {"type": "Feature", "properties": {"norad_id": 66580, "name": "STARLINK-35872", "group": "last-30-days", "lat": 40.04105661457052, "lon": 166.73172244385535, "alt_km": 408.50327127055425, "timestamp": "2025-12-15T22:44:27.660097+00:00", "meta": {"OBJECT_NAME": "STARLINK-35872", "OBJECT_ID": "2025-268Z", "EPOCH": "2025-12-15T08:31:30.920736", "MEAN_MOTION": 15.50656168, "ECCENTRICITY": 0.00010335, "INCLINATION": 42.9971, "RA_OF_ASC_NODE": 105.7929, "ARG_OF_PERICENTER": 307.8329, "MEAN_ANOMALY": 52.2438, "EPHEMERIS_TYPE": 0, "CLASSIFICATION_TYPE": "U", "NORAD_CAT_ID": 66580, "ELEMENT_SET_NO": 999, "REV_AT_EPOCH": 503, "BSTAR": 0.0013234565, "MEAN_MOTION_DOT": 0.00078294, "MEAN_MOTION_DDOT": 0}, "tle": {"line1": "1 66580U 25268Z   25349.35521899  .00078294  00000+0  13235-2 0  9998", "line2": "2 66580  42.9971 105.7929 0001033 307.8329  52.2438 15.50656168  5036"}}, "geometry": {"type": "Point", "coordinates": [166.73172244385535, 40.04105661457052]}}]}